COSMOS 2497             
1 39762U 14028B   24108.59193894  .00000062  00000+0  37731-3 0  9996
2 39762  82.4488 245.2819 0019694 358.6771   1.4254 12.42878452449309
COSMOS 2498             
1 39763U 14028C   24108.62258857  .00000066  00000+0  40489-3 0  9990
2 39763  82.4452 244.0798 0020321 358.7545   1.3480 12.42937347449335
COSMOS 2499 (RS-47)     
1 39765U 14028E   24108.86407042  .00000073  00000+0  22735-3 0  9992
2 39765  82.4489  65.7077 0232766  57.2451 305.0851 12.82871586463901
SPROUT                  
1 39770U 14029E   24108.40373129  .00166769  00000+0  55809-2 0  9999
2 39770  98.0089 255.3982 0003788 301.3591  58.7277 15.30250704538306
HODOYOSHI-4             
1 40011U 14033B   24108.82523429  .00004076  00000+0  49343-3 0  9999
2 40011  97.5901 321.4942 0026390  41.3751 318.9457 14.83929766531411
UNISAT-6                
1 40012U 14033C   24108.41227881  .00011272  00000+0  14857-2 0  9995
2 40012  97.6976 273.3620 0054335 142.7106 217.7898 14.79214377528852
DEIMOS-2                
1 40013U 14033D   24108.82670199  .00005708  00000+0  62182-3 0  9997
2 40013  97.6887 357.3090 0002504  83.9207 276.2295 14.88369489532780
BUGSAT-1 (TITA)         
1 40014U 14033E   24108.57809032  .00010629  00000+0  78322-3 0  9991
2 40014  98.1338 147.1365 0035344 338.6767  21.2981 15.03023993536539
SAUDISAT 4              
1 40016U 14033G   24108.42984784  .00003005  00000+0  42548-3 0  9996
2 40016  97.6616 277.2656 0048196 125.3201 235.2531 14.76964284529238
APRIZESAT 9             
1 40018U 14033J   24108.41169231  .00002624  00000+0  41370-3 0  9997
2 40018  97.7941 256.5564 0068382 221.3991 138.2023 14.71705898527136
BRITE-CA1 (TORONTO)     
1 40020U 14033L   24108.81941207  .00003210  00000+0  52708-3 0  9994
2 40020  97.8672 248.1111 0082273 285.0613  74.1500 14.69111758526117
DUCHIFAT-1              
1 40021U 14033M   24108.51113132  .00021315  00000+0  14968-2 0  9991
2 40021  98.0870  89.3348 0011474 311.8195  48.2049 15.05109520534996
NANOSATC-BR1            
1 40024U 14033Q   24108.47591818  .00018790  00000+0  14490-2 0  9993
2 40024  98.0552  78.1512 0007915  26.4322 333.7303 15.01628400534131
QB50P1                  
1 40025U 14033R   24108.34722615  .00018460  00000+0  15458-2 0  9990
2 40025  98.0352  67.1791 0010074   8.7950 351.3446 14.98451618533769
DTUSAT-2                
1 40030U 14033W   24108.82893773  .00012510  00000+0  10832-2 0  9994
2 40030  98.0043  59.7437 0010334   9.0001 351.1404 14.97244051534174
FLOCK 1C-4              
1 40031U 14033X   24108.84845519  .00032674  00000+0  22843-2 0  9990
2 40031  98.0745  82.4847 0005291 351.8320   8.2818 15.05215793534631
QB50P2                  
1 40032U 14033Y   24108.86637122  .00014275  00000+0  12338-2 0  9997
2 40032  98.0014  59.7928 0009835   8.7692 351.3699 14.97283090534168
PERSEUS-M1              
1 40039U 14033AF  24108.74823738  .00005996  00000+0  62966-3 0  9994
2 40039  97.9053  35.5788 0014226  40.0356 320.1907 14.89785732533197
POLYITAN-1              
1 40042U 14033AJ  24108.85298955  .00021061  00000+0  16589-2 0  9997
2 40042  98.0575  70.7700 0013737 347.6899  12.3986 15.00743265534299
TIGRISAT                
1 40043U 14033AK  24108.44161649  .00008222  00000+0  11044-2 0  9997
2 40043  97.6898 273.8368 0056882 140.6133 219.9236 14.78407214528481
AISAT                   
1 40054U 14034B   24108.54322369  .00014515  00000+0  15941-2 0  9991
2 40054  98.3459 320.7583 0009196 323.9426  36.1168 14.87745938528797
CANX-4                  
1 40055U 14034C   24108.53060421  .00003469  00000+0  49049-3 0  9992
2 40055  98.3969 300.7697 0013951  29.6887 330.5111 14.77760337527598
CANX-5                  
1 40056U 14034D   24108.53614265  .00003504  00000+0  49528-3 0  9996
2 40056  98.3971 300.7758 0013963  29.8074 330.3928 14.77768933518407
VELOX-I                 
1 40057U 14034E   24108.69545210  .00008961  00000+0  10524-2 0  9992
2 40057  98.3504 320.9566 0008769 345.6856  14.4107 14.85137473528729
GONETS-M 10             
1 40063U 14036C   24108.61650160  .00000054  00000+0  31598-3 0  9994
2 40063  82.5077  78.6796 0023076  67.8054 292.5471 12.42911022444034
METEOR-M 2              
1 40069U 14037A   24108.82565418  .00000461  00000+0  23204-3 0  9992
2 40069  98.4362 105.7661 0006015 162.2443 197.8946 14.20930871507059
DX1                     
1 40071U 14037C   24108.90408509  .00005557  00000+0  66654-3 0  9998
2 40071  98.3364  18.6599 0007091 328.0704  32.0078 14.84459616528694
UKUBE-1                 
1 40074U 14037F   24108.76180064  .00013473  00000+0  13147-2 0  9992
2 40074  98.3416  35.0356 0002102 276.7611  83.3367 14.92560746529768
GAOFEN-2                
1 40118U 14049A   24108.86438039  .00003487  00000+0  46001-3 0  9993
2 40118  97.6674 162.1223 0003452 279.0150  81.0672 14.80672632522305
BRITE-PL2 (HEWELIUSZ)   
1 40119U 14049B   24108.25310153  .00006396  00000+0  69468-3 0  9997
2 40119  97.8775 208.2310 0015734 200.5890 159.4694 14.88373877523510
HODOYOSHI-1             
1 40299U 14070B   24108.87621392  .00036167  00000+0  77851-3 0  9992
2 40299  97.1460 169.8431 0006828 246.3017 113.7516 15.44516184525805
CBERS 4                 
1 40336U 14079A   24108.82567810  .00000478  00000+0  18092-3 0  9990
2 40336  98.4036 178.7215 0001643 118.0115 242.1237 14.35496855490587
SMAP                    
1 40376U 15003A   24108.58332164  .00001625  00000+0  32367-3 0  9993
2 40376  98.1300 115.8313 0001162  86.2184 273.9151 14.63340106491992
CP10 (EXOCUBE)          
1 40380U 15003E   24108.53318459  .00155376  00000+0  13954-2 0  9997
2 40380  99.1008 116.7129 0045121 327.1355  32.7095 15.66432255509874
GONETS-M 11             
1 40552U 15020A   24108.60184918  .00000041  00000+0  22917-3 0  9994
2 40552  82.4870 163.5730 0014731 287.3944  72.5525 12.42865264410523
GONETS-M 12             
1 40553U 15020B   24108.57657736  .00000041  00000+0  22339-3 0  9992
2 40553  82.4906 164.4897 0013445 270.6002  89.3537 12.42877959410511
GONETS-M 13             
1 40554U 15020C   24108.87037839  .00000046  00000+0  26060-3 0  9992
2 40554  82.4864 163.1743 0012126 252.7852 107.1900 12.42867848410609
DMC3-FM1                
1 40715U 15032A   24108.86884931  .00002345  00000+0  29131-3 0  9992
2 40715  97.7590 349.5302 0007021 122.4004 237.7890 14.83491037472633
DMC3-FM2                
1 40716U 15032B   24108.82447926  .00002400  00000+0  29792-3 0  9993
2 40716  97.7641 350.5163 0008827 128.3647 231.8361 14.83494514472621
DMC3-FM3                
1 40717U 15032C   24108.91453583  .00001638  00000+0  20547-3 0  9991
2 40717  97.7687 351.8479 0010324 126.2296 233.9874 14.83462529472643
CARBONITE 1 (CBNT-1)    
1 40718U 15032D   24108.82685273  .00005384  00000+0  74912-3 0  9992
2 40718  97.6646 311.8971 0015727   6.1020 354.0380 14.78112297472346
DEORBITSAIL             
1 40719U 15032E   24108.58870411  .00013077  00000+0  15135-2 0  9995
2 40719  97.6962 333.9818 0013010 342.9578  17.1199 14.85576098473094
2015-049A               
1 40899U 15049A   24108.79123639  .00036622  00000+0  10116-2 0  9993
2 40899  97.4713 123.6428 0010594 156.6478 203.5250 15.36911286475358
KAITUO 1A               
1 40904U 15049F   24108.86202285  .00057288  00000+0  13529-2 0  9995
2 40904  97.4903 123.7602 0009732 157.6082 202.5591 15.41616892475139
2015-049G               
1 40905U 15049G   24108.80600673  .00017222  00000+0  65224-3 0  9997
2 40905  97.5257 117.3297 0011927 184.3560 175.7577 15.26915936474496
XW-2C                   
1 40906U 15049H   24108.84710433  .00041368  00000+0  10894-2 0  9998
2 40906  97.4844 124.2508 0010587 147.9561 212.2330 15.38364534475183
XW-2D                   
1 40907U 15049J   24108.86088325  .00057120  00000+0  12510-2 0  9999
2 40907  97.4790 126.2185 0009697 137.4862 222.7138 15.43873998475373
LILACSAT-2              
1 40908U 15049K   24108.85541866  .00015891  00000+0  63996-3 0  9997
2 40908  97.5275 117.1830 0012231 192.9144 167.1782 15.24880625474297
XW-2B                   
1 40911U 15049N   24108.86132387  .00054539  00000+0  12180-2 0  9996
2 40911  97.4766 126.3977 0009724 139.0447 221.1533 15.43305194475245
COSMOS 2507             
1 40920U 15050A   24108.84533199  .00000036  00000+0  18942-3 0  9998
2 40920  82.4953 211.6723 0008361 268.2927  91.7195 12.42886323388701
COSMOS 2508             
1 40921U 15050B   24108.87156936  .00000031  00000+0  15549-3 0  9997
2 40921  82.4907 210.4585 0012548 307.8357  52.1586 12.42869004388693
COSMOS 2509             
1 40922U 15050C   24108.57660698  .00000066  00000+0  40404-3 0  9996
2 40922  82.4908 210.7253 0014944 323.3932  36.6125 12.42877675388660
LAPAN-A2                
1 40931U 15052B   24105.10210969  .00001784  00000+0  15468-3 0  9996
2 40931   5.9979  90.5798 0013295 253.4384 106.4283 14.77734280462071
LQSAT                   
1 40958U 15057A   24108.81366534  .00001923  00000+0  29515-3 0  9994
2 40958  97.6727 132.1484 0016562 319.9869  40.0119 14.74581076458717
LINGQIAO VIDEO A        
1 40959U 15057B   24108.82847857  .00002272  00000+0  34496-3 0  9990
2 40959  97.6720 133.3129 0016398 319.5031  40.4957 14.74900444458790
LINGQIAO VIDEO B        
1 40960U 15057C   24108.86233377  .00002642  00000+0  39870-3 0  9994
2 40960  97.6731 134.4799 0016523 319.7104  40.2880 14.75038812458832
JILIN-1                 
1 40961U 15057D   24108.83353074  .00002638  00000+0  39249-3 0  9994
2 40961  97.6770 137.2235 0016357 316.3695  43.6221 14.75647839458937
ELEKTRO-L 2             
1 41105U 15074A   24108.60072118 -.00000121  00000+0  00000+0 0  9991
2 41105   4.6886  80.1640 0001964 218.7856 108.9488  1.00270749 30585
TELEOS-1                
1 41169U 15077D   24107.10988695  .00030748  00000+0  10567-2 0  9993
2 41169  14.9813 279.2164 0007289  76.3606 283.7528 15.27962092461339
